[{"OBJECT_NAME":"KUIPER-00080","OBJECT_ID":"2025-151M","EPOCH":"2026-03-09T22:17:34.050048","MEAN_MOTION":14.79937756,"ECCENTRICITY":8.294e-5,"INCLINATION":51.8982,"RA_OF_ASC_NODE":299.5145,"ARG_OF_PERICENTER":86.1378,"MEAN_ANOMALY":273.9679,"EPHEMERIS_TYPE":0,"CLASSIFICATION_TYPE":"U","NORAD_CAT_ID":64827,"ELEMENT_SET_NO":999,"REV_AT_EPOCH":3534,"BSTAR":0.00028328024,"MEAN_MOTION_DOT":1.939e-5,"MEAN_MOTION_DDOT":0},{"OBJECT_NAME":"SL-14 R\/B","OBJECT_ID":"1986-055B","EPOCH":"2026-03-09T16:18:40.903776","MEAN_MOTION":14.85642641,"ECCENTRICITY":0.00181921,"INCLINATION":82.5202,"RA_OF_ASC_NODE":126.6837,"ARG_OF_PERICENTER":336.5476,"MEAN_ANOMALY":145.9532,"EPHEMERIS_TYPE":0,"CLASSIFICATION_TYPE":"U","NORAD_CAT_ID":16882,"ELEMENT_SET_NO":999,"REV_AT_EPOCH":11936,"BSTAR":5.7455179e-5,"MEAN_MOTION_DOT":5.23e-6,"MEAN_MOTION_DDOT":0}]
